satname,norad_id,inclination_deg,eccentricity,mean_motion_rev_per_day,perigee_km,apogee_km,l1,l2
STARLINK-1494,45760,53.0518,0.0005492,15.55089789,398.16804466000394,405.6152281142113,1 45760U 20038AG  25343.40193284  .00047586  00000+0  69742-3 0  9993,2 45760  53.0518 234.1291 0005492 127.0301 233.1212 15.55089789303267
STARLINK-1502,45764,53.0543,0.0001444,15.06393888,546.23026736459,548.2303134380572,1 45764U 20038AL  25343.19026845 -.00000059  00000+0  14914-4 0  9998,2 45764  53.0543 262.8859 0001444 114.6471 245.4669 15.06393888302849
STARLINK-1470,45772,53.051,0.0007254,15.20567177,499.1362795893019,509.121070630752,1 45772U 20038AU  25343.11616762  .00050631  00000+0  22809-2 0  9992,2 45772  53.0510 232.2248 0007254  65.1891 294.9858 15.20567177303262
STARLINK-1482,45773,53.0534,0.0001536,15.06398417,546.1526753258158,548.2801438932484,1 45773U 20038AV  25342.95621498  .00003896  00000+0  28029-3 0  9998,2 45773  53.0534 243.9358 0001536  98.9624 261.1538 15.06398417303089
STARLINK-1496,45780,53.0524,0.0001308,15.06403625,546.2946137194722,548.1062819958315,1 45780U 20038BC  25343.45380649  .00003562  00000+0  25788-3 0  9991,2 45780  53.0524 241.7030 0001308  77.8491 282.2645 15.06403625303142
STARLINK-1497,45781,53.0344,0.0005681,15.66255905,365.7958027519062,373.46261471827074,1 45781U 20038BD  25343.91670139  .00075841  00000+0  71903-3 0  9998,2 45781  53.0344 169.8610 0005681 111.3663   1.4931 15.66255905  5971
STARLINK-1510,45784,53.0236,0.0003018,15.89113676,302.74971977482255,306.7835203999075,1 45784U 20038BG  25343.91670139  .00446026  00000+0  14475-2 0  9998,2 45784  53.0236 140.6027 0003018 282.6183 206.3994 15.89113676  5826
STARLINK-1513,45786,53.053,0.0001413,15.06404939,546.2178710436438,548.1749702683201,1 45786U 20038BJ  25343.68234172  .00003424  00000+0  24864-3 0  9992,2 45786  53.0530 240.6778 0001413  81.0834 279.0315 15.06404939303199
STARLINK-1522,46027,53.0534,0.0001571,15.06398795,546.1272782535407,548.303223930835,1 46027U 20055A   25343.53028642  .00000778  00000+0  71138-4 0  9993,2 46027  53.0534 171.3579 0001571  94.0851 266.0318 15.06398795295291
STARLINK-1523,46028,53.0547,0.0001428,15.06418768,546.1651057584359,548.1429688786948,1 46028U 20055B   25343.81039740  .00002611  00000+0  19401-3 0  9998,2 46028  53.0547 170.1044 0001428  91.3024 268.8129 15.06418768295353
STARLINK-1526,46029,53.0534,0.0001263,15.06405567,546.3198265696801,548.0691653055537,1 46029U 20055C   25343.80304205  .00001037  00000+0  88501-4 0  9998,2 46029  53.0534 170.1335 0001263  90.6157 269.4977 15.06405567295349
STARLINK-1555,46032,53.053,0.0001578,15.06411002,546.0850239165502,548.270653279611,1 46032U 20055F   25343.52292724  .00005902  00000+0  41464-3 0  9994,2 46032  53.0530 171.3912 0001578  82.4192 277.6976 15.06411002295307
STARLINK-1556,46033,53.0558,0.0001307,15.06393056,546.3276945417747,548.1379862180502,1 46033U 20055G   25343.23911071  .00001035  00000+0  88356-4 0  9991,2 46033  53.0558 172.6684 0001307  86.8970 273.2169 15.06393056295236
STARLINK-1557,46034,53.0549,0.0001391,15.06390668,546.2768393590131,548.2034792847362,1 46034U 20055H   25343.24278580  .00002475  00000+0  18506-3 0  9992,2 46034  53.0549 172.6490 0001391 102.6741 257.4404 15.06390668295230
STARLINK-1558,46035,53.0533,0.0001445,15.06404505,546.1970399250367,548.1984616680165,1 46035U 20055J   25343.51556153  .00002677  00000+0  19852-3 0  9997,2 46035  53.0533 171.4279 0001445  90.2759 269.8396 15.06404505295308
STARLINK-1560,46036,53.0551,0.0001401,15.06387292,546.2802596121501,548.2207531914446,1 46036U 20055K   25343.23541561  .00000147  00000+0  28776-4 0  9990,2 46036  53.0551 172.6869 0001401  96.0629 264.0520 15.06387292295263
STARLINK-1567,46038,53.0537,0.0001391,15.06393012,546.2696562710598,548.1962941981701,1 46038U 20055M   25343.24646796 -.00001550  00000+0 -85223-4 0  9990,2 46038  53.0537 172.6340 0001391  88.2874 271.8274 15.06393012295254
STARLINK-1569,46039,53.054,0.0001295,15.06400142,546.31429014687,548.1079553106556,1 46039U 20055N   25343.78461920  .00000062  00000+0  23044-4 0  9992,2 46039  53.0540 170.2191 0001295  90.5519 269.5618 15.06400142295330
STARLINK-1582,46043,53.0533,0.0001418,15.06400232,546.2288325670952,548.1928612164729,1 46043U 20055S   25343.79198803  .00001119  00000+0  93977-4 0  9991,2 46043  53.0533 170.1838 0001418  91.2550 268.8601 15.06400232295338
STARLINK-1591,46045,53.0533,0.0002062,15.06554783,545.3093018896525,548.1651200142496,1 46045U 20055U   25343.81773647 -.00038424  00000+0 -25637-2 0  9998,2 46045  53.0533 170.0672 0002062  60.2241 299.8953 15.06554783295328
STARLINK-1524,46047,53.0537,0.0001422,15.06400145,546.2263290324527,548.1958980359423,1 46047U 20055W   25343.77079443  .00001662  00000+0  13044-3 0  9990,2 46047  53.0537 160.2801 0001422  90.7499 269.3653 15.06400145295478
STARLINK-1527,46048,53.0539,0.0001319,15.06403494,546.2873972898742,548.1143014145327,1 46048U 20055X   25343.76710196  .00000851  00000+0  75995-4 0  9990,2 46048  53.0539 160.2961 0001319  75.5110 284.6025 15.06403494295455
STARLINK-1540,46051,53.0544,0.0001142,15.06395813,546.4335142491655,548.0152667907596,1 46051U 20055AA  25343.46854832  .00000377  00000+0  44197-4 0  9990,2 46051  53.0544 161.6358 0001142  74.1302 285.9813 15.06395813295445
STARLINK-1541,46052,53.0552,0.0001428,15.06405143,546.206857905664,548.1847329520388,1 46052U 20055AB  25343.78552948 -.00000145  00000+0  91946-5 0  9998,2 46052  53.0552 160.2114 0001428  90.7559 269.3593 15.06405143295455
STARLINK-1543,46053,53.0548,0.0001431,15.06401656,546.2154658890831,548.1974991937868,1 46053U 20055AC  25343.78922066  .00001980  00000+0  15175-3 0  9996,2 46053  53.0548 160.1954 0001431  91.6903 268.4249 15.06401656295485
STARLINK-1548,46054,53.0545,0.000134,15.06394305,546.3010133023827,548.1570113936923,1 46054U 20055AD  25343.79659580  .00000828  00000+0  74509-4 0  9993,2 46054  53.0545 160.1630 0001340  95.7754 264.3387 15.06394305295482
STARLINK-1554,46055,53.053,0.0001928,15.06393116,545.897445217377,548.5678677569176,1 46055U 20055AE  25343.78186477  .00004599  00000+0  32747-3 0  9999,2 46055  53.0530 160.2292 0001928 100.6214 259.4992 15.06393116295487
STARLINK-1564,46058,53.0545,0.0001337,15.06400285,546.2847654690513,548.1366034398743,1 46058U 20055AH  25343.79296449  .00000798  00000+0  72467-4 0  9995,2 46058  53.0545 160.6414 0001337  92.6330 267.4812 15.06400285295474
